{"timestamp": "2025-03-02T19:01:21.608120", "data": [ {"OBJECT_NAME": "GSAT0220 (GALILEO 24)", "OBJECT_ID": "2018-060D", "EPOCH": "2025-02-28T04:17:30.188832", "MEAN_MOTION": 1.70475118, "ECCENTRICITY": 0.0005597, "INCLINATION": 57.2893, "RA_OF_ASC_NODE": 354.5769, "ARG_OF_PERICENTER": 300.7131, "MEAN_ANOMALY": 59.2347, "EPHEMERIS_TYPE": 0, "CLASSIFICATION_TYPE": "U", "NORAD_CAT_ID": 43567, "ELEMENT_SET_NO": 999, "REV_AT_EPOCH": 4109, "BSTAR": 0, "MEAN_MOTION_DOT": -8.2e-07, "MEAN_MOTION_DDOT": 0, "line1": "1 43567U 18060D   25059.17882163 -.00000082  00000+0  00000+0 0  9996", "line2": "2 43567  57.2893 354.5769 0005597 300.7131  59.2347  1.70475118 41099"}, {"OBJECT_NAME": "BEIDOU-3 M5 (C23)", "OBJECT_ID": "2018-062A", "EPOCH": "2025-03-01T01:10:24.935808", "MEAN_MOTION": 1.86228397, "ECCENTRICITY": 0.0001591, "INCLINATION": 54.1095, "RA_OF_ASC_NODE": 198.3906, "ARG_OF_PERICENTER": 308.1666, "MEAN_ANOMALY": 51.7687, "EPHEMERIS_TYPE": 0, "CLASSIFICATION_TYPE": "U", "NORAD_CAT_ID": 43581, "ELEMENT_SET_NO": 999, "REV_AT_EPOCH": 4482, "BSTAR": 0, "MEAN_MOTION_DOT": 3.5e-07, "MEAN_MOTION_DDOT": 0, "line1": "1 43581U 18062A   25060.04889972  .00000035  00000+0  00000+0 0  9994", "line2": "2 43581  54.1095 198.3906 0001591 308.1666  51.7687  1.86228397 44827"}, {"OBJECT_NAME": "BEIDOU-3 M6 (C24)", "OBJECT_ID": "2018-062B", "EPOCH": "2025-02-28T21:55:19.350624", "MEAN_MOTION": 1.862292, "ECCENTRICITY": 0.000615, "INCLINATION": 54.1089, "RA_OF_ASC_NODE": 198.3845, "ARG_OF_PERICENTER": 42.9441, "MEAN_ANOMALY": 317.053, "EPHEMERIS_TYPE": 0, "CLASSIFICATION_TYPE": "U", "NORAD_CAT_ID": 43582, "ELEMENT_SET_NO": 999, "REV_AT_EPOCH": 4482, "BSTAR": 0, "MEAN_MOTION_DOT": 3.5e-07, "MEAN_MOTION_DDOT": 0, "line1": "1 43582U 18062B   25059.91341841  .00000035  00000+0  00000+0 0  9997", "line2": "2 43582  54.1089 198.3845 0006150  42.9441 317.0530  1.86229200 44822"}, {"OBJECT_NAME": "BEIDOU-3 M12 (C26)", "OBJECT_ID": "2018-067A", "EPOCH": "2025-03-01T09:14:41.764704", "MEAN_MOTION": 1.86227695, "ECCENTRICITY": 0.0008125, "INCLINATION": 54.2014, "RA_OF_ASC_NODE": 197.0734, "ARG_OF_PERICENTER": 36.0447, "MEAN_ANOMALY": 323.9618, "EPHEMERIS_TYPE": 0, "CLASSIFICATION_TYPE": "U", "NORAD_CAT_ID": 43602, "ELEMENT_SET_NO": 999, "REV_AT_EPOCH": 4431, "BSTAR": 0, "MEAN_MOTION_DOT": 3.7e-07, "MEAN_MOTION_DDOT": 0, "line1": "1 43602U 18067A   25060.38520561  .00000037  00000+0  00000+0 0  9998", "line2": "2 43602  54.2014 197.0734 0008125  36.0447 323.9618  1.86227695 44314"}, {"OBJECT_NAME": "BEIDOU-3 M11 (C25)", "OBJECT_ID": "2018-067B", "EPOCH": "2025-03-01T12:27:17.317152", "MEAN_MOTION": 1.86227159, "ECCENTRICITY": 0.0004663, "INCLINATION": 54.1986, "RA_OF_ASC_NODE": 197.0335, "ARG_OF_PERICENTER": 31.0104, "MEAN_ANOMALY": 328.9696, "EPHEMERIS_TYPE": 0, "CLASSIFICATION_TYPE": "U", "NORAD_CAT_ID": 43603, "ELEMENT_SET_NO": 999, "REV_AT_EPOCH": 4434, "BSTAR": 0, "MEAN_MOTION_DOT": 3.8e-07, "MEAN_MOTION_DDOT": 0, "line1": "1 43603U 18067B   25060.51895043  .00000038  00000+0  00000+0 0  9995", "line2": "2 43603  54.1986 197.0335 0004663  31.0104 328.9696  1.86227159 44346"}, {"OBJECT_NAME": "BEIDOU-3 M13 (C32)", "OBJECT_ID": "2018-072A", "EPOCH": "2025-03-01T11:29:36.286944", "MEAN_MOTION": 1.86231057, "ECCENTRICITY": 0.0008818, "INCLINATION": 56.2084, "RA_OF_ASC_NODE": 78.3088, "ARG_OF_PERICENTER": 300.3268, "MEAN_ANOMALY": 59.6417, "EPHEMERIS_TYPE": 0, "CLASSIFICATION_TYPE": "U", "NORAD_CAT_ID": 43622, "ELEMENT_SET_NO": 999, "REV_AT_EPOCH": 4385, "BSTAR": 0, "MEAN_MOTION_DOT": 1.8e-07, "MEAN_MOTION_DDOT": 0, "line1": "1 43622U 18072A   25060.47889221  .00000018  00000+0  00000+0 0  9996", "line2": "2 43622  56.2084  78.3088 0008818 300.3268  59.6417  1.86231057 43850"}, {"OBJECT_NAME": "BEIDOU-3 M14 (C33)", "OBJECT_ID": "2018-072B", "EPOCH": "2025-03-02T10:02:18.638592", "MEAN_MOTION": 1.8623102, "ECCENTRICITY": 0.0006278, "INCLINATION": 56.2111, "RA_OF_ASC_NODE": 78.2711, "ARG_OF_PERICENTER": 320.1108, "MEAN_ANOMALY": 39.8926, "EPHEMERIS_TYPE": 0, "CLASSIFICATION_TYPE": "U", "NORAD_CAT_ID": 43623, "ELEMENT_SET_NO": 999, "REV_AT_EPOCH": 4386, "BSTAR": 0, "MEAN_MOTION_DOT": 8e-08, "MEAN_MOTION_DDOT": 0, "line1": "1 43623U 18072B   25061.41827128  .00000008  00000+0  00000+0 0  9999", "line2": "2 43623  56.2111  78.2711 0006278 320.1108  39.8926  1.86231020 43861"}, {"OBJECT_NAME": "BEIDOU-3 M16 (C35)", "OBJECT_ID": "2018-078A", "EPOCH": "2025-03-02T01:00:44.198208", "MEAN_MOTION": 1.86232158, "ECCENTRICITY": 0.0008215, "INCLINATION": 54.5083, "RA_OF_ASC_NODE": 316.4857, "ARG_OF_PERICENTER": 20.5998, "MEAN_ANOMALY": 339.4909, "EPHEMERIS_TYPE": 0, "CLASSIFICATION_TYPE": "U", "NORAD_CAT_ID": 43647, "ELEMENT_SET_NO": 999, "REV_AT_EPOCH": 4337, "BSTAR": 0, "MEAN_MOTION_DOT": -5.3e-07, "MEAN_MOTION_DDOT": 0, "line1": "1 43647U 18078A   25061.04217822 -.00000053  00000+0  00000+0 0  9995", "line2": "2 43647  54.5083 316.4857 0008215  20.5998 339.4909  1.86232158 43374"}, {"OBJECT_NAME": "BEIDOU-3 M15 (C34)", "OBJECT_ID": "2018-078B", "EPOCH": "2025-03-02T04:06:49.170816", "MEAN_MOTION": 1.86232004, "ECCENTRICITY": 0.0005127, "INCLINATION": 54.5039, "RA_OF_ASC_NODE": 316.4832, "ARG_OF_PERICENTER": 26.8105, "MEAN_ANOMALY": 333.2732, "EPHEMERIS_TYPE": 0, "CLASSIFICATION_TYPE": "U", "NORAD_CAT_ID": 43648, "ELEMENT_SET_NO": 999, "REV_AT_EPOCH": 4339, "BSTAR": 0, "MEAN_MOTION_DOT": -5.4e-07, "MEAN_MOTION_DDOT": 0, "line1": "1 43648U 18078B   25061.17140244 -.00000054  00000+0  00000+0 0  9994", "line2": "2 43648  54.5039 316.4832 0005127  26.8105 333.2732  1.86232004 43395"}, {"OBJECT_NAME": "BEIDOU-3 G1 (C59)", "OBJECT_ID": "2018-085A", "EPOCH": "2025-03-01T22:15:48.748320", "MEAN_MOTION": 1.00272765, "ECCENTRICITY": 0.0002645, "INCLINATION": 2.834, "RA_OF_ASC_NODE": 100.9942, "ARG_OF_PERICENTER": 356.0739, "MEAN_ANOMALY": 176.8629, "EPHEMERIS_TYPE": 0, "CLASSIFICATION_TYPE": "U", "NORAD_CAT_ID": 43683, "ELEMENT_SET_NO": 999, "REV_AT_EPOCH": 2331, "BSTAR": 0, "MEAN_MOTION_DOT": -2.8e-06, "MEAN_MOTION_DDOT": 0, "line1": "1 43683U 18085A   25060.92764755 -.00000280  00000+0  00000+0 0  9993", "line2": "2 43683   2.8340 100.9942 0002645 356.0739 176.8629  1.00272765 23316"}, {"OBJECT_NAME": "COSMOS 2529 (757)", "OBJECT_ID": "2018-086A", "EPOCH": "2025-02-26T19:43:11.678880", "MEAN_MOTION": 2.13101947, "ECCENTRICITY": 0.0007344, "INCLINATION": 64.2956, "RA_OF_ASC_NODE": 208.6519, "ARG_OF_PERICENTER": 257.3969, "MEAN_ANOMALY": 102.4871, "EPHEMERIS_TYPE": 0, "CLASSIFICATION_TYPE": "U", "NORAD_CAT_ID": 43687, "ELEMENT_SET_NO": 999, "REV_AT_EPOCH": 4915, "BSTAR": 0, "MEAN_MOTION_DOT": 4.5e-07, "MEAN_MOTION_DDOT": 0, "line1": "1 43687U 18086A   25057.82166295  .00000045  00000+0  00000+0 0  9996", "line2": "2 43687  64.2956 208.6519 0007344 257.3969 102.4871  2.13101947 49152"}, {"OBJECT_NAME": "BEIDOU-3 M17 (C36)", "OBJECT_ID": "2018-093A", "EPOCH": "2025-03-01T06:01:47.072064", "MEAN_MOTION": 1.86228099, "ECCENTRICITY": 0.0006653, "INCLINATION": 54.1927, "RA_OF_ASC_NODE": 198.341, "ARG_OF_PERICENTER": 291.8074, "MEAN_ANOMALY": 68.0722, "EPHEMERIS_TYPE": 0, "CLASSIFICATION_TYPE": "U", "NORAD_CAT_ID": 43706, "ELEMENT_SET_NO": 999, "REV_AT_EPOCH": 4273, "BSTAR": 0, "MEAN_MOTION_DOT": 3.7e-07, "MEAN_MOTION_DDOT": 0, "line1": "1 43706U 18093A   25060.25123926  .00000037  00000+0  00000+0 0  9992", "line2": "2 43706  54.1927 198.3410 0006653 291.8074  68.0722  1.86228099 42733"}, {"OBJECT_NAME": "BEIDOU-3 M18 (C37)", "OBJECT_ID": "2018-093B", "EPOCH": "2025-02-28T13:51:39.084480", "MEAN_MOTION": 1.8622958, "ECCENTRICITY": 0.0005732, "INCLINATION": 54.1936, "RA_OF_ASC_NODE": 198.3557, "ARG_OF_PERICENTER": 334.8142, "MEAN_ANOMALY": 25.1061, "EPHEMERIS_TYPE": 0, "CLASSIFICATION_TYPE": "U", "NORAD_CAT_ID": 43707, "ELEMENT_SET_NO": 999, "REV_AT_EPOCH": 4271, "BSTAR": 0, "MEAN_MOTION_DOT": 3.3e-07, "MEAN_MOTION_DDOT": 0, "line1": "1 43707U 18093B   25059.57753570  .00000033  00000+0  00000+0 0  9996", "line2": "2 43707  54.1936 198.3557 0005732 334.8142  25.1061  1.86229580 42711"}, {"OBJECT_NAME": "GPS BIII-1  (PRN 04)", "OBJECT_ID": "2018-109A", "EPOCH": "2025-03-02T08:18:40.701888", "MEAN_MOTION": 2.00565407, "ECCENTRICITY": 0.0033156, "INCLINATION": 55.4092, "RA_OF_ASC_NODE": 110.8216, "ARG_OF_PERICENTER": 196.8547, "MEAN_ANOMALY": 154.2214, "EPHEMERIS_TYPE": 0, "CLASSIFICATION_TYPE": "U", "NORAD_CAT_ID": 43873, "ELEMENT_SET_NO": 999, "REV_AT_EPOCH": 4555, "BSTAR": 0, "MEAN_MOTION_DOT": 2.7e-07, "MEAN_MOTION_DDOT": 0, "line1": "1 43873U 18109A   25061.34630442  .00000027  00000+0  00000+0 0  9991", "line2": "2 43873  55.4092 110.8216 0033156 196.8547 154.2214  2.00565407 45556"}, {"OBJECT_NAME": "BEIDOU-3 IGSO-1 (C38)", "OBJECT_ID": "2019-023A", "EPOCH": "2025-03-02T08:27:47.335680", "MEAN_MOTION": 1.00276677, "ECCENTRICITY": 0.0022433, "INCLINATION": 58.0262, "RA_OF_ASC_NODE": 42.5251, "ARG_OF_PERICENTER": 227.3634, "MEAN_ANOMALY": 137.0785, "EPHEMERIS_TYPE": 0, "CLASSIFICATION_TYPE": "U", "NORAD_CAT_ID": 44204, "ELEMENT_SET_NO": 999, "REV_AT_EPOCH": 2162, "BSTAR": 0, "MEAN_MOTION_DOT": -2e-06, "MEAN_MOTION_DDOT": 0, "line1": "1 44204U 19023A   25061.35263120 -.00000200  00000+0  00000+0 0  9996", "line2": "2 44204  58.0262  42.5251 0022433 227.3634 137.0785  1.00276677 21627"}, {"OBJECT_NAME": "BEIDOU-2 G8 (C01)", "OBJECT_ID": "2019-027A", "EPOCH": "2025-03-01T22:17:03.812640", "MEAN_MOTION": 1.00269689, "ECCENTRICITY": 0.0005821, "INCLINATION": 1.4189, "RA_OF_ASC_NODE": 74.5251, "ARG_OF_PERICENTER": 248.4102, "MEAN_ANOMALY": 315.7719, "EPHEMERIS_TYPE": 0, "CLASSIFICATION_TYPE": "U", "NORAD_CAT_ID": 44231, "ELEMENT_SET_NO": 999, "REV_AT_EPOCH": 2133, "BSTAR": 0, "MEAN_MOTION_DOT": -2.5e-06, "MEAN_MOTION_DDOT": 0, "line1": "1 44231U 19027A   25060.92851635 -.00000250  00000+0  00000+0 0  9991", "line2": "2 44231   1.4189  74.5251 0005821 248.4102 315.7719  1.00269689 21333"}]}